CYGNUS NG-23            
1 65616U 25208A   25352.53865931  .00007413  00000+0  13939-3 0  9990
2 65616  51.6314 113.7624 0003172 267.0099  93.0526 15.49652631   227
DRAGONFLY               
1 65729U 98067XH  25352.58353461  .00166206  00000+0  11293-2 0  9999
2 65729  51.6249 105.7955 0007166 314.6867  45.3548 15.73865471 14084
1998-067XK              
1 65731U 98067XK  25352.60392310  .00090673  00000+0  83588-3 0  9992
2 65731  51.6292 107.4546 0004791 283.3796  76.6665 15.66848038 14061
RSP-03                  
1 65732U 98067XL  25352.53368180  .00121384  00000+0  97504-3 0  9990
2 65732  51.6263 106.9735 0005665 289.7816  70.2570 15.70075461 14071
GHS-01                  
1 65733U 98067XM  25352.58676697  .00217764  00000+0  12611-2 0  9994
2 65733  51.6277 105.0740 0007964 318.3708  41.6685 15.77352830 14104
YOTSUBA-KULOVER         
1 65941U 98067XN  25352.41452413  .00066041  00000+0  79453-3 0  9993
2 65941  51.6285 111.4386 0001660 311.4961  48.5889 15.60208015 10748
BOTAN                   
1 65942U 98067XP  25352.40687507  .00105165  00000+0  10814-2 0  9993
2 65942  51.6278 110.6371 0002848 287.2475  72.8208 15.64050786 10755
E-KAGAKU-1              
1 65943U 98067XQ  25352.35057484  .00070368  00000+0  84620-3 0  9996
2 65943  51.6302 111.7666 0001345 249.8249 110.2600 15.60193795 10732
HTV-X1                  
1 66174U 25241A   25352.53865931  .00007413  00000+0  13939-3 0  9997
2 66174  51.6314 113.7624 0003172 267.0099  93.0526 15.49652631   519
SHENZHOU-22             
1 66645U 25272A   25352.28684694  .00023377  00000+0  29030-3 0  9997
2 66645  41.4683 343.0261 0007725  79.3286 280.8422 15.59417882263579
